[{"OBJECT_NAME":"TIANMU-1 10","OBJECT_ID":"2023-101D","EPOCH":"2026-03-09T23:06:46.939392","MEAN_MOTION":15.2921896,"ECCENTRICITY":0.00069292,"INCLINATION":97.2749,"RA_OF_ASC_NODE":122.1027,"ARG_OF_PERICENTER":133.6162,"MEAN_ANOMALY":226.5654,"EPHEMERIS_TYPE":0,"CLASSIFICATION_TYPE":"U","NORAD_CAT_ID":57402,"ELEMENT_SET_NO":999,"REV_AT_EPOCH":14647,"BSTAR":0.00032238884,"MEAN_MOTION_DOT":9.075e-5,"MEAN_MOTION_DDOT":0},{"OBJECT_NAME":"STARLINK-32165","OBJECT_ID":"2024-150S","EPOCH":"2026-03-09T22:12:26.205120","MEAN_MOTION":15.30181375,"ECCENTRICITY":0.00012155,"INCLINATION":53.1618,"RA_OF_ASC_NODE":306.2028,"ARG_OF_PERICENTER":83.39,"MEAN_ANOMALY":276.7239,"EPHEMERIS_TYPE":0,"CLASSIFICATION_TYPE":"U","NORAD_CAT_ID":60599,"ELEMENT_SET_NO":999,"REV_AT_EPOCH":8807,"BSTAR":9.668109e-5,"MEAN_MOTION_DOT":2.504e-5,"MEAN_MOTION_DDOT":0}]
